      2.10          N: GNSS NAV DATA                        RINEX VERSION / TYPE
fic2rin                                 11/02/2021 00:17:26 PGM / RUN BY / DATE
                                                            END OF HEADER
12 21 11  1 10  0  0.0-1.199273392558e-04-5.570655048359e-12 0.000000000000e+00
    2.900000000000e+01 7.812500000000e+00 4.691266838666e-09 1.108884788451e+00
    2.533197402954e-07 8.307063370012e-03 3.674998879433e-06 5.153652761459e+03
    1.224000000000e+05-1.061707735062e-07-2.066710734843e+00 3.725290298462e-09
    9.714952685974e-01 3.141875000000e+02 1.230201019633e+00-8.461423880839e-09
   -8.000333245992e-11 1.000000000000e+00 2.182000000000e+03 0.000000000000e+00
    2.400000000000e+00 0.000000000000e+00-1.257285475731e-08 2.900000000000e+01
    1.152000000000e+05 4.000000000000e+00
10 21 11  1 10  0  0.0-2.364190295339e-04-8.299139153678e-12 0.000000000000e+00
    4.400000000000e+01-1.350000000000e+01 4.794842581582e-09 4.841460103732e-01
   -6.444752216339e-07 7.116787019186e-03 3.244727849960e-06 5.153674095154e+03
    1.224000000000e+05 2.048909664154e-08 1.000638230816e+00 7.450580596924e-09
    9.707440645525e-01 3.196875000000e+02-2.580461364882e+00-8.515711856437e-09
   -1.203621564241e-10 1.000000000000e+00 2.182000000000e+03 0.000000000000e+00
    2.400000000000e+00 0.000000000000e+00 2.328306436539e-09 4.400000000000e+01
    1.152000000000e+05 4.000000000000e+00
 8 21 11  1 10  0  0.0-4.236074164510e-05-1.591615728103e-12 0.000000000000e+00
    2.400000000000e+01-4.212500000000e+01 4.354109937584e-09-1.505494810473e+00
   -2.464279532433e-06 6.682710722089e-03 9.836629033089e-06 5.153672876358e+03
    1.224000000000e+05 2.980232238770e-08-1.109603609341e+00-1.024454832077e-07
    9.657354880166e-01 1.919687500000e+02 5.501448997433e-02-7.977117993270e-09
   -2.614394614315e-10 1.000000000000e+00 2.182000000000e+03 0.000000000000e+00
    2.400000000000e+00 0.000000000000e+00 5.122274160385e-09 2.400000000000e+01
    1.152000000000e+05 4.000000000000e+00
 6 21 11  1 10  0  0.0 1.075472682714e-04 8.753886504564e-12 0.000000000000e+00
    1.300000000000e+01 5.853125000000e+01 3.974808423868e-09 2.834103580476e+00
    3.183260560036e-06 2.328894566745e-03 1.002848148346e-05 5.153609125137e+03
    1.224000000000e+05 1.173466444016e-07-4.055199114177e-02 3.725290298462e-08
    9.856841022707e-01 1.975937500000e+02-1.041308171191e+00-7.821754378894e-09
    4.389468553270e-10 1.000000000000e+00 2.182000000000e+03 0.000000000000e+00
    2.400000000000e+00 0.000000000000e+00 4.190951585770e-09 1.300000000000e+01
    1.152000000000e+05 4.000000000000e+00
 5 21 11  1 10  0  0.0-5.959160625935e-05-1.250555214938e-12 0.000000000000e+00
    6.500000000000e+01-4.406250000000e+00 5.041995733646e-09-1.218193159823e+00
   -1.620501279831e-07 6.035032914951e-03 3.073364496231e-06 5.153603984833e+03
    1.224000000000e+05 1.098960638046e-07 9.644806817374e-01 1.508742570877e-07
    9.579026691311e-01 3.180937500000e+02 1.013434397199e+00-8.538212793692e-09
    1.214336296267e-11 1.000000000000e+00 2.182000000000e+03 0.000000000000e+00
    2.400000000000e+00 0.000000000000e+00-1.117587089539e-08 6.500000000000e+01
    1.152000000000e+05 4.000000000000e+00
 4 21 11  1 10  0  0.0-2.027596347034e-04 6.821210263297e-13 0.000000000000e+00
    1.580000000000e+02-6.528125000000e+01 4.323751530178e-09-2.004270396627e+00
   -3.477558493614e-06 1.478654332459e-03 1.151673495770e-05 5.153688899994e+03
    1.224000000000e+05-1.117587089539e-08 2.084943836268e+00 2.235174179077e-08
    9.606766500043e-01 1.562812500000e+02-3.122105241815e+00-7.929616014621e-09
   -3.546576300567e-10 1.000000000000e+00 2.182000000000e+03 0.000000000000e+00
    2.400000000000e+00 0.000000000000e+00-4.190951585770e-09 1.580000000000e+02
    1.152000000000e+05 4.000000000000e+00
 3 21 11  1 10  0  0.0-3.417953848839e-06-7.844391802792e-12 0.000000000000e+00
    4.300000000000e+01-2.259375000000e+01 4.784842165025e-09 1.279561250771e+00
   -1.220032572746e-06 3.893279004842e-03 3.591179847717e-06 5.153738292694e+03
    1.224000000000e+05-1.247972249985e-07 1.003462173267e+00 6.891787052155e-08
    9.708954677962e-01 3.147812500000e+02 1.001148675118e+00-8.439994416788e-09
   -6.214544575012e-11 1.000000000000e+00 2.182000000000e+03 0.000000000000e+00
    2.400000000000e+00 6.300000000000e+01 1.862645149231e-09 4.300000000000e+01
    1.152000000000e+05 4.000000000000e+00
 9 21 11  1 10  0  0.0-3.618970513344e-04 1.136868377216e-13 0.000000000000e+00
    1.240000000000e+02-8.068750000000e+01 4.637693178536e-09-1.180852959974e+00
   -4.222616553307e-06 2.318114624359e-03 1.081638038158e-05 5.153686447144e+03
    1.224000000000e+05-5.587935447693e-09 2.032836821368e+00 2.235174179077e-08
    9.535723292122e-01 1.656562500000e+02 1.818919441090e+00-8.130695818974e-09
   -4.025167664390e-10 1.000000000000e+00 2.182000000000e+03 0.000000000000e+00
    3.400000000000e+00 0.000000000000e+00 1.396983861923e-09 1.240000000000e+02
    1.152000000000e+05 4.000000000000e+00
 7 21 11  1 10  0  0.0 2.715499140322e-04 5.798028723802e-12 0.000000000000e+00
    6.800000000000e+01 6.784375000000e+01 4.674123267424e-09 1.809244476260e+00
    3.412365913391e-06 1.529003120959e-02 1.082569360733e-05 5.153729789734e+03
    1.224000000000e+05-3.166496753693e-07 3.104658656352e+00-8.568167686462e-08
    9.516953702065e-01 1.680937500000e+02-2.302113915416e+00-8.161768541849e-09
    3.750156209059e-10 1.000000000000e+00 2.182000000000e+03 0.000000000000e+00
    2.400000000000e+00 0.000000000000e+00-1.117587089539e-08 6.800000000000e+01
    1.152000000000e+05 4.000000000000e+00
32 21 11  1 10  0  0.0-1.667952165008e-05-4.433786671143e-12 0.000000000000e+00
    1.400000000000e+01-6.943750000000e+01 4.546617956316e-09-8.807837546931e-01
   -3.727152943611e-06 5.154105369002e-03 1.011230051517e-05 5.153738460541e+03
    1.224000000000e+05 1.136213541031e-07 2.043564398180e+00 1.322478055954e-07
    9.574833675512e-01 1.855312500000e+02-2.386580520235e+00-8.092479941415e-09
   -4.482329564161e-10 1.000000000000e+00 2.182000000000e+03 0.000000000000e+00
    2.400000000000e+00 0.000000000000e+00 4.656612873077e-10 1.400000000000e+01
    1.152000000000e+05 4.000000000000e+00
25 21 11  1 10  0  0.0 2.336543984711e-04 6.025402399246e-12 0.000000000000e+00
    1.800000000000e+01 1.609375000000e+01 4.975564395086e-09 9.336069513798e-01
    7.133930921555e-07 9.954365319572e-03 3.593042492867e-06 5.153755517960e+03
    1.224000000000e+05-7.078051567078e-08-2.142187975779e+00 5.587935447693e-08
    9.589434665873e-01 3.095625000000e+02 9.630345418656e-01-8.645360113950e-09
   -7.357449324439e-11 1.000000000000e+00 2.182000000000e+03 0.000000000000e+00
    2.400000000000e+00 0.000000000000e+00 5.587935447693e-09 1.800000000000e+01
    1.152000000000e+05 4.000000000000e+00
29 21 11  1 10  0  0.0-4.344354383647e-04-5.343281372916e-12 0.000000000000e+00
    5.700000000000e+01-4.800000000000e+01 3.974451266134e-09-1.585855656705e+00
   -2.492219209671e-06 1.865949830972e-03 1.058354973793e-05 5.153563018799e+03
    1.224000000000e+05-3.539025783539e-08-1.016490041005e+00 1.862645149231e-08
    9.827297070255e-01 1.929062500000e+02 2.378251725308e+00-7.783895659069e-09
   -2.578678840896e-10 1.000000000000e+00 2.182000000000e+03 0.000000000000e+00
    2.400000000000e+00 0.000000000000e+00-1.024454832077e-08 5.700000000000e+01
    1.152000000000e+05 4.000000000000e+00
31 21 11  1 10  0  0.0-1.479210332036e-04-1.932676241267e-12 0.000000000000e+00
    7.500000000000e+01 7.625000000000e+01 4.485186826034e-09 1.363223546155e+00
    4.233792424202e-06 1.033380278386e-02 1.011975109577e-05 5.153641664505e+03
    1.224000000000e+05-1.285225152969e-07 3.122328228566e+00 1.173466444016e-07
    9.559672255864e-01 1.833437500000e+02 3.223240235751e-01-8.080693736186e-09
    2.178662178596e-10 1.000000000000e+00 2.182000000000e+03 0.000000000000e+00
    2.400000000000e+00 0.000000000000e+00-1.303851604462e-08 7.500000000000e+01
    1.152000000000e+05 4.000000000000e+00
22 21 11  1 10  0  0.0-4.753665998578e-04 9.094947017729e-12 0.000000000000e+00
    3.900000000000e+01-5.250000000000e+00 5.478799642568e-09-2.727057237406e+00
   -2.067536115646e-07 6.728791748174e-03 2.836808562279e-06 5.153690748215e+03
    1.224000000000e+05-7.450580596924e-08 8.984166705691e-01 8.568167686462e-08
    9.367625081014e-01 3.093437500000e+02-8.801378661206e-01-8.653217584103e-09
    6.821712723145e-11 1.000000000000e+00 2.182000000000e+03 0.000000000000e+00
    2.400000000000e+00 0.000000000000e+00-1.769512891769e-08 3.900000000000e+01
    1.152000000000e+05 4.000000000000e+00
21 21 11  1 10  0  0.0 1.496477052569e-04 1.250555214938e-12 0.000000000000e+00
    4.100000000000e+01 8.153125000000e+01 4.500187450871e-09-1.473247076734e+00
    4.362314939499e-06 2.418367832433e-02 1.048296689987e-05 5.153628952026e+03
    1.224000000000e+05-5.159527063370e-07-1.202570009582e-01 2.309679985046e-07
    9.589410527725e-01 1.875625000000e+02-1.064391518991e+00-8.270701650779e-09
    4.885917803802e-10 1.000000000000e+00 2.182000000000e+03 0.000000000000e+00
    2.400000000000e+00 0.000000000000e+00-1.024454832077e-08 4.100000000000e+01
    1.152000000000e+05 4.000000000000e+00
13 21 11  1 10  0  0.0 2.080714330077e-04 5.570655048359e-12 0.000000000000e+00
    7.500000000000e+01-7.134375000000e+01 4.078384166785e-09-2.160317394348e+00
   -3.606081008911e-06 5.653351196088e-03 1.157820224762e-05 5.153686445236e+03
    1.224000000000e+05 2.793967723846e-08 2.184001293426e+00-8.754432201385e-08
    9.682990281240e-01 1.603437500000e+02 9.749648933498e-01-7.720678740117e-09
   -2.985838657879e-10 1.000000000000e+00 2.182000000000e+03 0.000000000000e+00
    2.400000000000e+00 0.000000000000e+00-1.117587089539e-08 7.500000000000e+01
    1.152000000000e+05 4.000000000000e+00
